STARLINK-33828          
1 63493U 25071A   26052.45281360  .00027797  00000+0  94678-3 0  9992
2 63493  53.1589 217.5010 0001658 133.9273 226.1865 15.30211467 50232
STARLINK-33819          
1 63494U 25071B   26051.86814818  .00022399  00000+0  76587-3 0  9999
2 63494  53.1601 220.2522 0001137  55.2991 304.8117 15.30209232 50143
STARLINK-33845          
1 63495U 25071C   26051.78330879  .00015932  00000+0  54881-3 0  9999
2 63495  53.1595 218.2959 0000847  76.9168 283.1927 15.30204641 50169
STARLINK-33829          
1 63496U 25071D   26052.45228284  .00028503  00000+0  97035-3 0  9997
2 63496  53.1603 215.3562 0001543 128.9087 231.2052 15.30214875 50220
STARLINK-33815          
1 63497U 25071E   26052.60084926  .00030192  00000+0  10265-2 0  9994
2 63497  53.1575 214.8678 0001362 120.1211 239.9925 15.30228001 50302
STARLINK-33833          
1 63498U 25071F   26052.46178016  .00028233  00000+0  96121-3 0  9992
2 63498  53.1585 215.4152 0001130  92.5227 267.5903 15.30218366 50283
STARLINK-33534          
1 63499U 25071G   26052.45755966  .00034615  00000+0  11748-2 0  9999
2 63499  53.1591 215.3876 0001133 114.1105 246.0014 15.30215753 50262
STARLINK-33838          
1 63500U 25071H   26052.44067702  .00028537  00000+0  97139-3 0  9990
2 63500  53.1619 215.2904 0001487  62.8450 297.2703 15.30218284 50075
STARLINK-33837          
1 63501U 25071J   26052.60718216  .00053322  00000+0  17970-2 0  9996
2 63501  53.1585 214.9051 0000938  93.0330 267.0778 15.30247484 50240
STARLINK-33818          
1 63502U 25071K   26051.71904972  .00015575  00000+0  53705-3 0  9999
2 63502  53.1599 218.6040 0001315  56.8693 303.2434 15.30189479 50177
STARLINK-33583          
1 63503U 25071L   26052.50136893  .00032559  00000+0  11058-2 0  9992
2 63503  53.1600 217.7906 0001213  76.3165 283.7970 15.30223322 50263
STARLINK-33811          
1 63504U 25071M   26052.61246049  .00023997  00000+0  81939-3 0  9992
2 63504  53.1573 214.9327 0001189 106.2011 253.9121 15.30212732 50242
STARLINK-33825          
1 63505U 25071N   26051.77487121 -.00024151  00000+0 -80628-3 0  9996
2 63505  53.1585 218.2438 0001566  92.5609 267.5571 15.30184658 50183
STARLINK-33792          
1 63506U 25071P   26052.43223515  .00024379  00000+0  83214-3 0  9990
2 63506  53.1603 215.2385 0001882  54.4183 305.6993 15.30215260 50230
STARLINK-33843          
1 63507U 25071Q   26052.45122244  .00033201  00000+0  11275-2 0  9991
2 63507  53.1609 215.3164 0001395 109.9040 250.2112 15.30218238 50269
STARLINK-33809          
1 63508U 25071R   26052.43961547  .00027255  00000+0  92848-3 0  9995
2 63508  53.1620 215.2482 0001574  65.1634 294.9531 15.30217204 50224
