[{"OBJECT_NAME":"STARLINK-33828","OBJECT_ID":"2025-071A","EPOCH":"2026-02-21T10:52:03.095040","MEAN_MOTION":15.30211467,"ECCENTRICITY":0.00016586,"INCLINATION":53.1589,"RA_OF_ASC_NODE":217.501,"ARG_OF_PERICENTER":133.9273,"MEAN_ANOMALY":226.1865,"EPHEMERIS_TYPE":0,"CLASSIFICATION_TYPE":"U","NORAD_CAT_ID":63493,"ELEMENT_SET_NO":999,"REV_AT_EPOCH":5023,"BSTAR":0.000946783,"MEAN_MOTION_DOT":0.00027797,"MEAN_MOTION_DDOT":0},{"OBJECT_NAME":"STARLINK-33819","OBJECT_ID":"2025-071B","EPOCH":"2026-02-20T20:50:08.002752","MEAN_MOTION":15.30209232,"ECCENTRICITY":0.0001137,"INCLINATION":53.1601,"RA_OF_ASC_NODE":220.2522,"ARG_OF_PERICENTER":55.2991,"MEAN_ANOMALY":304.8117,"EPHEMERIS_TYPE":0,"CLASSIFICATION_TYPE":"U","NORAD_CAT_ID":63494,"ELEMENT_SET_NO":999,"REV_AT_EPOCH":5014,"BSTAR":0.00076587,"MEAN_MOTION_DOT":0.00022399,"MEAN_MOTION_DDOT":0},{"OBJECT_NAME":"STARLINK-33845","OBJECT_ID":"2025-071C","EPOCH":"2026-02-20T18:47:57.879456","MEAN_MOTION":15.30204641,"ECCENTRICITY":8.477e-5,"INCLINATION":53.1595,"RA_OF_ASC_NODE":218.2959,"ARG_OF_PERICENTER":76.9168,"MEAN_ANOMALY":283.1927,"EPHEMERIS_TYPE":0,"CLASSIFICATION_TYPE":"U","NORAD_CAT_ID":63495,"ELEMENT_SET_NO":999,"REV_AT_EPOCH":5016,"BSTAR":0.00054880949,"MEAN_MOTION_DOT":0.00015932,"MEAN_MOTION_DDOT":0},{"OBJECT_NAME":"STARLINK-33829","OBJECT_ID":"2025-071D","EPOCH":"2026-02-21T10:51:17.237376","MEAN_MOTION":15.30214875,"ECCENTRICITY":0.0001543,"INCLINATION":53.1603,"RA_OF_ASC_NODE":215.3562,"ARG_OF_PERICENTER":128.9087,"MEAN_ANOMALY":231.2052,"EPHEMERIS_TYPE":0,"CLASSIFICATION_TYPE":"U","NORAD_CAT_ID":63496,"ELEMENT_SET_NO":999,"REV_AT_EPOCH":5022,"BSTAR":0.00097034707,"MEAN_MOTION_DOT":0.00028503,"MEAN_MOTION_DDOT":0},{"OBJECT_NAME":"STARLINK-33815","OBJECT_ID":"2025-071E","EPOCH":"2026-02-21T14:25:13.376064","MEAN_MOTION":15.30228001,"ECCENTRICITY":0.00013625,"INCLINATION":53.1575,"RA_OF_ASC_NODE":214.8678,"ARG_OF_PERICENTER":120.1211,"MEAN_ANOMALY":239.9925,"EPHEMERIS_TYPE":0,"CLASSIFICATION_TYPE":"U","NORAD_CAT_ID":63497,"ELEMENT_SET_NO":999,"REV_AT_EPOCH":5030,"BSTAR":0.0010264683,"MEAN_MOTION_DOT":0.00030192,"MEAN_MOTION_DDOT":0},{"OBJECT_NAME":"STARLINK-33833","OBJECT_ID":"2025-071F","EPOCH":"2026-02-21T11:04:57.805824","MEAN_MOTION":15.30218366,"ECCENTRICITY":0.00011308,"INCLINATION":53.1585,"RA_OF_ASC_NODE":215.4152,"ARG_OF_PERICENTER":92.5227,"MEAN_ANOMALY":267.5903,"EPHEMERIS_TYPE":0,"CLASSIFICATION_TYPE":"U","NORAD_CAT_ID":63498,"ELEMENT_SET_NO":999,"REV_AT_EPOCH":5028,"BSTAR":0.00096120916,"MEAN_MOTION_DOT":0.00028233,"MEAN_MOTION_DDOT":0},{"OBJECT_NAME":"STARLINK-33534","OBJECT_ID":"2025-071G","EPOCH":"2026-02-21T10:58:53.154624","MEAN_MOTION":15.30215753,"ECCENTRICITY":0.00011335,"INCLINATION":53.1591,"RA_OF_ASC_NODE":215.3876,"ARG_OF_PERICENTER":114.1105,"MEAN_ANOMALY":246.0014,"EPHEMERIS_TYPE":0,"CLASSIFICATION_TYPE":"U","NORAD_CAT_ID":63499,"ELEMENT_SET_NO":999,"REV_AT_EPOCH":5026,"BSTAR":0.0011748273,"MEAN_MOTION_DOT":0.00034615,"MEAN_MOTION_DDOT":0},{"OBJECT_NAME":"STARLINK-33838","OBJECT_ID":"2025-071H","EPOCH":"2026-02-21T10:34:34.494528","MEAN_MOTION":15.30218284,"ECCENTRICITY":0.00014876,"INCLINATION":53.1619,"RA_OF_ASC_NODE":215.2904,"ARG_OF_PERICENTER":62.845,"MEAN_ANOMALY":297.2703,"EPHEMERIS_TYPE":0,"CLASSIFICATION_TYPE":"U","NORAD_CAT_ID":63500,"ELEMENT_SET_NO":999,"REV_AT_EPOCH":5007,"BSTAR":0.0009713908,"MEAN_MOTION_DOT":0.00028537,"MEAN_MOTION_DDOT":0},{"OBJECT_NAME":"STARLINK-33837","OBJECT_ID":"2025-071J","EPOCH":"2026-02-21T14:34:20.538624","MEAN_MOTION":15.30247484,"ECCENTRICITY":9.384e-5,"INCLINATION":53.1585,"RA_OF_ASC_NODE":214.9051,"ARG_OF_PERICENTER":93.033,"MEAN_ANOMALY":267.0778,"EPHEMERIS_TYPE":0,"CLASSIFICATION_TYPE":"U","NORAD_CAT_ID":63501,"ELEMENT_SET_NO":999,"REV_AT_EPOCH":5024,"BSTAR":0.0017969517,"MEAN_MOTION_DOT":0.00053322,"MEAN_MOTION_DDOT":0},{"OBJECT_NAME":"STARLINK-33818","OBJECT_ID":"2025-071K","EPOCH":"2026-02-20T17:15:25.895808","MEAN_MOTION":15.30189479,"ECCENTRICITY":0.00013159,"INCLINATION":53.1599,"RA_OF_ASC_NODE":218.604,"ARG_OF_PERICENTER":56.8693,"MEAN_ANOMALY":303.2434,"EPHEMERIS_TYPE":0,"CLASSIFICATION_TYPE":"U","NORAD_CAT_ID":63502,"ELEMENT_SET_NO":999,"REV_AT_EPOCH":5017,"BSTAR":0.00053704781,"MEAN_MOTION_DOT":0.00015575,"MEAN_MOTION_DDOT":0},{"OBJECT_NAME":"STARLINK-33583","OBJECT_ID":"2025-071L","EPOCH":"2026-02-21T12:01:58.275552","MEAN_MOTION":15.30223322,"ECCENTRICITY":0.00012139,"INCLINATION":53.16,"RA_OF_ASC_NODE":217.7906,"ARG_OF_PERICENTER":76.3165,"MEAN_ANOMALY":283.797,"EPHEMERIS_TYPE":0,"CLASSIFICATION_TYPE":"U","NORAD_CAT_ID":63503,"ELEMENT_SET_NO":999,"REV_AT_EPOCH":5026,"BSTAR":0.0011058188,"MEAN_MOTION_DOT":0.00032559,"MEAN_MOTION_DDOT":0},{"OBJECT_NAME":"STARLINK-33811","OBJECT_ID":"2025-071M","EPOCH":"2026-02-21T14:41:56.586336","MEAN_MOTION":15.30212732,"ECCENTRICITY":0.00011895,"INCLINATION":53.1573,"RA_OF_ASC_NODE":214.9327,"ARG_OF_PERICENTER":106.2011,"MEAN_ANOMALY":253.9121,"EPHEMERIS_TYPE":0,"CLASSIFICATION_TYPE":"U","NORAD_CAT_ID":63504,"ELEMENT_SET_NO":999,"REV_AT_EPOCH":5024,"BSTAR":0.00081939332,"MEAN_MOTION_DOT":0.00023997,"MEAN_MOTION_DDOT":0},{"OBJECT_NAME":"STARLINK-33825","OBJECT_ID":"2025-071N","EPOCH":"2026-02-20T18:35:48.872544","MEAN_MOTION":15.30184658,"ECCENTRICITY":0.00015666,"INCLINATION":53.1585,"RA_OF_ASC_NODE":218.2438,"ARG_OF_PERICENTER":92.5609,"MEAN_ANOMALY":267.5571,"EPHEMERIS_TYPE":0,"CLASSIFICATION_TYPE":"U","NORAD_CAT_ID":63505,"ELEMENT_SET_NO":999,"REV_AT_EPOCH":5018,"BSTAR":-0.00080628129,"MEAN_MOTION_DOT":-0.00024151,"MEAN_MOTION_DDOT":0},{"OBJECT_NAME":"STARLINK-33792","OBJECT_ID":"2025-071P","EPOCH":"2026-02-21T10:22:25.116960","MEAN_MOTION":15.3021526,"ECCENTRICITY":0.0001882,"INCLINATION":53.1603,"RA_OF_ASC_NODE":215.2385,"ARG_OF_PERICENTER":54.4183,"MEAN_ANOMALY":305.6993,"EPHEMERIS_TYPE":0,"CLASSIFICATION_TYPE":"U","NORAD_CAT_ID":63506,"ELEMENT_SET_NO":999,"REV_AT_EPOCH":5023,"BSTAR":0.00083214276,"MEAN_MOTION_DOT":0.00024379,"MEAN_MOTION_DDOT":0},{"OBJECT_NAME":"STARLINK-33843","OBJECT_ID":"2025-071Q","EPOCH":"2026-02-21T10:49:45.618816","MEAN_MOTION":15.30218238,"ECCENTRICITY":0.00013957,"INCLINATION":53.1609,"RA_OF_ASC_NODE":215.3164,"ARG_OF_PERICENTER":109.904,"MEAN_ANOMALY":250.2112,"EPHEMERIS_TYPE":0,"CLASSIFICATION_TYPE":"U","NORAD_CAT_ID":63507,"ELEMENT_SET_NO":999,"REV_AT_EPOCH":5026,"BSTAR":0.0011274624,"MEAN_MOTION_DOT":0.00033201,"MEAN_MOTION_DDOT":0},{"OBJECT_NAME":"STARLINK-33809","OBJECT_ID":"2025-071R","EPOCH":"2026-02-21T10:33:02.776608","MEAN_MOTION":15.30217204,"ECCENTRICITY":0.00015742,"INCLINATION":53.162,"RA_OF_ASC_NODE":215.2482,"ARG_OF_PERICENTER":65.1634,"MEAN_ANOMALY":294.9531,"EPHEMERIS_TYPE":0,"CLASSIFICATION_TYPE":"U","NORAD_CAT_ID":63508,"ELEMENT_SET_NO":999,"REV_AT_EPOCH":5022,"BSTAR":0.00092848486,"MEAN_MOTION_DOT":0.00027255,"MEAN_MOTION_DDOT":0}]
